STARLINK-31031          
1 58711U 24002G   24175.42909510 -.00000825  00000+0 -38248-4 0  9994
2 58711  53.1590 186.2383 0001124  77.0581 283.0534 15.04920251 27344
STARLINK-31029          
1 58712U 24002H   24175.33920378 -.00001310  00000+0 -72202-4 0  9998
2 58712  53.1597 187.0919 0001294  91.2708 268.8430 15.04911798 27323
STARLINK-30973          
1 58713U 24002J   24175.40238699 -.00000005  00000+0  19014-4 0  9996
2 58713  53.1588 186.7746 0001115  85.6432 274.4685 15.04918149 27334
STARLINK-31100          
1 58714U 24002K   24175.33275184  .00000008  00000+0  19921-4 0  9998
2 58714  53.1592 187.0502 0001211  89.5530 270.5598 15.04921455 27326
STARLINK-31102          
1 58715U 24002L   24175.26312061 -.00000587  00000+0 -21637-4 0  9998
2 58715  53.1604 187.3296 0001313  68.9554 291.1576 15.04929132 27318
STARLINK-31098          
1 58716U 24002M   24175.39272529 -.00000434  00000+0 -10965-4 0  9990
2 58716  53.1597 186.7125 0001162  84.8295 275.2828 15.04924803 27330
STARLINK-31093          
1 58717U 24002N   24175.49872882  .00001242  00000+0  10608-3 0  9999
2 58717  53.1598 185.9746 0001197  88.9769 271.1358 15.04930133 27203
STARLINK-31097          
1 58718U 24002P   24175.32309319 -.00000200  00000+0  54025-5 0  9999
2 58718  53.1594 186.9886 0001049  86.2061 273.9049 15.04923433 27323
STARLINK-31051          
1 58719U 24002Q   24175.31987520  .00000077  00000+0  24739-4 0  9994
2 58719  53.1593 186.9688 0001081  95.8585 264.2527 15.04923207 27329
STARLINK-31027          
1 58720U 24002R   24175.25024839 -.00000501  00000+0 -15626-4 0  9993
2 58720  53.1592 187.2447 0001233  82.8363 277.2767 15.04921082 27314
STARLINK-30972          
1 58721U 24002S   24175.31344179 -.00004250  00000+0 -27767-3 0  9996
2 58721  53.1604 186.9245 0001239 112.8364 247.2757 15.04925673 27329
STARLINK-31040          
1 58722U 24002T   24175.44196792  .00000377  00000+0  45721-4 0  9992
2 58722  53.1593 186.3058 0001267  82.4320 277.6814 15.04927792 27345
STARLINK-31033          
1 58723U 24002U   24175.35946259  .00000309  00000+0  40963-4 0  9992
2 58723  53.1597 186.5081 0000716  37.1342 322.9697 15.04922250 27333
STARLINK-30893          
1 58724U 24002V   24175.43875140  .00000395  00000+0  46934-4 0  9991
2 58724  53.1598 186.3004 0001170  89.9097 270.2026 15.04923294 27346
STARLINK-30856          
1 58725U 24002W   24175.30269828  .00000327  00000+0  42226-4 0  9993
2 58725  53.1593 186.8657 0000843  96.0581 264.0504 15.04926658 27321
STARLINK-31155          
1 58728U 24005A   24175.58210214  .00001036  00000+0  91733-4 0  9999
2 58728  43.0049  12.5080 0001165 270.9472  89.1236 15.02535830 26630
STARLINK-31115          
1 58729U 24005B   24175.57877214 -.00000195  00000+0  62923-6 0  9995
2 58729  43.0036  12.4724 0001241 261.5424  98.5277 15.02534871 26531
STARLINK-31150          
1 58730U 24005C   24175.40346911  .00001311  00000+0  38650-4 0  9992
2 58730  43.0004 308.0261 0001130 253.6225 106.4507 15.40697030 27272
STARLINK-31204          
1 58731U 24005D   24175.59023784 -.00000652  00000+0 -33196-4 0  9992
2 58731  43.0044  14.2668 0001160 271.5905  88.4804 15.02521390 26520
STARLINK-31180          
1 58732U 24005E   24175.60541436 -.00000405  00000+0 -14882-4 0  9991
2 58732  43.0074  12.6829 0002228 285.3688  74.6908 15.02541563 26539
STARLINK-31164          
1 58733U 24005F   24175.57555209  .00001710  00000+0  14159-3 0  9995
2 58733  43.0053  13.3064 0001344 267.1072  92.9617 15.02539132 26527
STARLINK-31152          
1 58734U 24005G   24175.57222337  .00001557  00000+0  13027-3 0  9991
2 58734  43.0054  13.2806 0001383 260.1114  99.9572 15.02537637 26531
STARLINK-31157          
1 58735U 24005H   24175.56889770  .00000531  00000+0  54377-4 0  9996
2 58735  43.0054  13.2565 0001439 262.8090  97.2589 15.02535908 26536
STARLINK-31076          
1 58736U 24005J   24175.56556923  .00000267  00000+0  34871-4 0  9991
2 58736  43.0055  13.2280 0001399 261.0756  98.9928 15.02534516 26592
STARLINK-31101          
1 58737U 24005K   24175.55891242  .00001163  00000+0  10112-3 0  9994
2 58737  43.0052  13.1790 0001258 266.8159  93.2540 15.02541889 26543
STARLINK-31108          
1 58738U 24005L   24175.56223488  .00000497  00000+0  51849-4 0  9999
2 58738  43.0037  13.2011 0001637 249.4661 110.6005 15.02535133 26523
STARLINK-31042          
1 58739U 24005M   24175.55557971  .00000084  00000+0  21290-4 0  9995
2 58739  43.0037  13.1500 0000963 239.4707 120.6040 15.02533649 26538
STARLINK-31159          
1 58740U 24005N   24175.61872868 -.00000828  00000+0 -46211-4 0  9997
2 58740  43.0038  12.7647 0001413 252.5343 107.5345 15.02540343 26633
STARLINK-31148          
1 58741U 24005P   24175.61540421 -.00000459  00000+0 -18920-4 0  9991
2 58741  43.0034  12.7606 0001155 273.8013  86.2697 15.02534127 26544
STARLINK-31151          
1 58742U 24005Q   24175.61206761  .00000641  00000+0  62489-4 0  9998
2 58742  43.0054  12.7335 0001413 264.3467  95.7214 15.02543190 26631
STARLINK-31156          
1 58743U 24005R   24175.60873949  .00000944  00000+0  84952-4 0  9991
2 58743  43.0053  12.7075 0001145 271.5300  88.5411 15.02534660 26596
STARLINK-31167          
1 58744U 24005S   24175.48376209 -.00000610  00000+0 -13483-4 0  9998
2 58744  43.0058 353.1142 0001383 280.2897  79.7798 15.25909696 26816
STARLINK-31176          
1 58745U 24005T   24175.60208188  .00000468  00000+0  49695-4 0  9996
2 58745  43.0030  12.6571 0000854 261.1355  98.9391 15.02535584 26581
STARLINK-31181          
1 58746U 24005U   24175.52659221  .00000734  00000+0  37879-4 0  9993
2 58746  42.9968 352.5269 0000496 232.5548 127.5258 15.25912470 26824
STARLINK-31183          
1 58747U 24005V   24175.59541929 -.00000194  00000+0  69434-6 0  9991
2 58747  43.0055  12.6082 0001572 270.0259  90.0404 15.02538948 26649
STARLINK-31165          
1 58748U 24005W   24175.59875549 -.00006981  00000+0 -50179-3 0  9994
2 58748  43.0065  12.6353 0001789 281.2071  78.8570 15.02567706 26549
STARLINK-31160          
1 58749U 24005X   24175.52227102  .00000469  00000+0  49818-4 0  9996
2 58749  43.0040  12.8480 0001579 254.1086 105.9582 15.02535653 26538
STARLINK-31179          
1 58750U 24005Y   24175.52561536 -.00000027  00000+0  13101-4 0  9997
2 58750  43.0055  12.9443 0001716 289.9777  70.0880 15.02539143 26533
STARLINK-31127          
1 58765U 24011A   24175.58058058 -.00002659  00000+0 -16651-3 0  9992
2 58765  53.1622 324.9390 0001317 105.5032 254.6103 15.04917139 25682
STARLINK-31114          
1 58766U 24011B   24175.59654564 -.00000784  00000+0 -35397-4 0  9994
2 58766  53.1616 324.3368 0001278  88.5056 271.6080 15.04914097 25691
STARLINK-31140          
1 58767U 24011C   24175.57733816  .00000250  00000+0  36806-4 0  9993
2 58767  53.1618 324.9197 0001387  96.0772 264.0375 15.04928197 25688
STARLINK-31145          
1 58768U 24011D   24175.57412098  .00006264  00000+0  45655-3 0  9992
2 58768  53.1607 324.8983 0001361  98.4368 261.6776 15.04924537 25680
STARLINK-31146          
1 58769U 24011E   24175.56983029  .00000464  00000+0  51806-4 0  9991
2 58769  53.1612 324.8716 0001297  98.2363 261.8773 15.04925258 25682
STARLINK-31143          
1 58770U 24011F   24175.56661806  .00000030  00000+0  21434-4 0  9992
2 58770  53.1618 324.8539 0001444  92.9073 267.2082 15.04929732 25680
STARLINK-31135          
1 58771U 24011G   24175.56339100  .00000433  00000+0  49585-4 0  9996
2 58771  53.1613 324.8333 0001322  86.5314 273.5827 15.04926470 25683
STARLINK-31136          
1 58772U 24011H   24175.56017569  .00000625  00000+0  62998-4 0  9995
2 58772  53.1611 324.8114 0001058  91.0680 269.0431 15.04922283 25681
STARLINK-31073          
1 58773U 24011J   24175.55695337 -.00000057  00000+0  15402-4 0  9998
2 58773  53.1623 324.7880 0001361  95.7368 264.3777 15.04926507 25689
STARLINK-31122          
1 58774U 24011K   24175.55373766  .00000557  00000+0  58284-4 0  9997
2 58774  53.1611 324.7711 0001128  95.1355 264.9764 15.04920412 25682
STARLINK-31123          
1 58775U 24011L   24175.41769371  .00000108  00000+0  26949-4 0  9999
2 58775  53.1613 325.3439 0001455 106.3007 253.8142 15.04925363 25666
STARLINK-31117          
1 58776U 24011M   24175.61370862  .00001358  00000+0  11418-3 0  9997
2 58776  53.1611 324.4374 0001328  80.1420 279.9719 15.04927498 25693
STARLINK-31132          
1 58777U 24011N   24175.58888419  .00000515  00000+0  31269-4 0  9997
2 58777  53.1593 301.9120 0001569 105.1759 254.9415 15.27999307 26018
STARLINK-31120          
1 58778U 24011P   24175.60298023  .00000289  00000+0  39548-4 0  9993
2 58778  53.1615 324.3676 0001263  96.9902 263.1231 15.04924512 25699
STARLINK-31142          
1 58779U 24011Q   24175.60727867  .00000572  00000+0  59347-4 0  9991
2 58779  53.1612 324.3933 0001634  84.3591 275.7585 15.04930673 25696
STARLINK-31103          
1 58780U 24011R   24175.58335648  .00030612  00000+0  38977-3 0  9995
2 58780  53.1575 293.1939 0009304 298.2257 138.5384 15.59056575  5266
STARLINK-31099          
1 58781U 24011S   24175.59332164 -.00000695  00000+0 -29181-4 0  9995
2 58781  53.1621 324.3052 0001389  95.5241 264.5907 15.04931677 25693
STARLINK-31060          
1 58782U 24011T   24175.55663296  .00001408  00000+0  63501-4 0  9990
2 58782  53.1613 303.1219 0001855 144.4489 215.6635 15.28015278 25872
STARLINK-31047          
1 58783U 24011U   24175.58367271  .00000057  00000+0  23359-4 0  9994
2 58783  53.1612 324.2432 0001556 103.0099 257.1064 15.04934242 25691
STARLINK-31039          
1 58784U 24011V   24175.59010573  .00000280  00000+0  38965-4 0  9993
2 58784  53.1618 324.2872 0001506 110.6953 249.4198 15.04920227 25694
STARLINK-31034          
1 58785U 24011W   24175.60739111  .00002969  00000+0  11981-3 0  9996
2 58785  53.1620 300.5816 0001481  86.3452 273.7717 15.28021693 26039
